{
  "type": "FeatureCollection",
  "features": [
    {
      "type": "Feature",
      "properties": {
        "norad_id": 66990,
        "name": "TJS-22",
        "group": "last-30-days",
        "lat": 1.9308934018696806,
        "lon": 6.468214432185521,
        "alt_km": 35787.77361112593,
        "timestamp": "2025-12-27T13:34:48.009259+00:00",
        "meta_object_name": "TJS-22",
        "meta_object_id": "2025-290A",
        "meta_epoch": "2025-12-26T08:16:12.456768",
        "meta_mean_motion": 1.00271724,
        "meta_eccentricity": 0.00033766,
        "meta_inclination": 1.9542,
        "meta_ra_of_asc_node": 285.0436,
        "meta_arg_of_pericenter": 343.3803,
        "meta_mean_anomaly": 17.1692,
        "meta_ephemeris_type": 0,
        "meta_classification_type": "U",
        "meta_norad_cat_id": 66990,
        "meta_element_set_no": 999,
        "meta_rev_at_epoch": 29,
        "meta_bstar": 0,
        "meta_mean_motion_dot": 1.6e-07,
        "meta_mean_motion_ddot": 0,
        "tle_line1": "1 66990U 25290A   25360.34458862  .00000016  00000+0  00000+0 0  9999",
        "tle_line2": "2 66990   1.9542 285.0436 0003376 343.3803  17.1692  1.00271724   295"
      },
      "geometry": {
        "type": "Point",
        "coordinates": [
          6.468214432185521,
          1.9308934018696806
        ]
      }
    },
    {
      "type": "Feature",
      "properties": {
        "norad_id": 66991,
        "name": "CZ-3B R/B",
        "group": "last-30-days",
        "lat": 16.999504587405898,
        "lon": -29.863201937769816,
        "alt_km": 24923.68926508198,
        "timestamp": "2025-12-27T13:34:48.009272+00:00",
        "meta_object_name": "CZ-3B R/B",
        "meta_object_id": "2025-290B",
        "meta_epoch": "2025-12-15T17:23:33.043200",
        "meta_mean_motion": 2.38388611,
        "meta_eccentricity": 0.7240884,
        "meta_inclination": 28.4636,
        "meta_ra_of_asc_node": 300.4666,
        "meta_arg_of_pericenter": 182.7002,
        "meta_mean_anomaly": 168.625,
        "meta_ephemeris_type": 0,
        "meta_classification_type": "U",
        "meta_norad_cat_id": 66991,
        "meta_element_set_no": 999,
        "meta_rev_at_epoch": 16,
        "meta_bstar": 0.00075879,
        "meta_mean_motion_dot": 0.00057911,
        "meta_mean_motion_ddot": -2.0514e-07,
        "tle_line1": "1 66991U 25290B   25349.72468800  .00057911 -20514-6  75879-3 0  9998",
        "tle_line2": "2 66991  28.4636 300.4666 7240884 182.7002 168.6250  2.38388611   165"
      },
      "geometry": {
        "type": "Point",
        "coordinates": [
          -29.863201937769816,
          16.999504587405898
        ]
      }
    },
    {
      "type": "Feature",
      "properties": {
        "norad_id": 66993,
        "name": "2025-292A",
        "group": "last-30-days",
        "lat": -29.960477480830573,
        "lon": 78.41427759740598,
        "alt_km": 562.2691874736929,
        "timestamp": "2025-12-27T13:34:48.009283+00:00",
        "meta_object_name": "2025-292A",
        "meta_object_id": "2025-292A",
        "meta_epoch": "2025-12-27T05:44:02.121216",
        "meta_mean_motion": 15.04606757,
        "meta_eccentricity": 0.00147896,
        "meta_inclination": 97.6491,
        "meta_ra_of_asc_node": 73.6476,
        "meta_arg_of_pericenter": 220.5754,
        "meta_mean_anomaly": 139.4371,
        "meta_ephemeris_type": 0,
        "meta_classification_type": "U",
        "meta_norad_cat_id": 66993,
        "meta_element_set_no": 999,
        "meta_rev_at_epoch": 257,
        "meta_bstar": 0.00036114555,
        "meta_mean_motion_dot": 5.021e-05,
        "meta_mean_motion_ddot": 0,
        "tle_line1": "1 66993U 25292A   25361.23891344  .00005021  00000+0  36115-3 0  9990",
        "tle_line2": "2 66993  97.6491  73.6476 0014789 220.5754 139.4371 15.04606757  2571"
      },
      "geometry": {
        "type": "Point",
        "coordinates": [
          78.41427759740598,
          -29.960477480830573
        ]
      }
    },
    {
      "type": "Feature",
      "properties": {
        "norad_id": 66994,
        "name": "2025-292B",
        "group": "last-30-days",
        "lat": -27.156817569232118,
        "lon": 77.92787850486425,
        "alt_km": 562.2715582037135,
        "timestamp": "2025-12-27T13:34:48.009293+00:00",
        "meta_object_name": "2025-292B",
        "meta_object_id": "2025-292B",
        "meta_epoch": "2025-12-26T21:44:28.806144",
        "meta_mean_motion": 15.04654531,
        "meta_eccentricity": 0.0014552,
        "meta_inclination": 97.6501,
        "meta_ra_of_asc_node": 73.3208,
        "meta_arg_of_pericenter": 222.0345,
        "meta_mean_anomaly": 137.9766,
        "meta_ephemeris_type": 0,
        "meta_classification_type": "U",
        "meta_norad_cat_id": 66994,
        "meta_element_set_no": 999,
        "meta_rev_at_epoch": 252,
        "meta_bstar": 0.00041508,
        "meta_mean_motion_dot": 5.788e-05,
        "meta_mean_motion_ddot": 0,
        "tle_line1": "1 66994U 25292B   25360.90588896  .00005788  00000+0  41508-3 0  9991",
        "tle_line2": "2 66994  97.6501  73.3208 0014552 222.0345 137.9766 15.04654531  2524"
      },
      "geometry": {
        "type": "Point",
        "coordinates": [
          77.92787850486425,
          -27.156817569232118
        ]
      }
    },
    {
      "type": "Feature",
      "properties": {
        "norad_id": 66995,
        "name": "2025-292C",
        "group": "last-30-days",
        "lat": -25.90081828658022,
        "lon": 77.71487791468205,
        "alt_km": 562.2739610092276,
        "timestamp": "2025-12-27T13:34:48.009303+00:00",
        "meta_object_name": "2025-292C",
        "meta_object_id": "2025-292C",
        "meta_epoch": "2025-12-25T05:50:07.257120",
        "meta_mean_motion": 15.04668363,
        "meta_eccentricity": 0.0014688,
        "meta_inclination": 97.6495,
        "meta_ra_of_asc_node": 71.6733,
        "meta_arg_of_pericenter": 227.9665,
        "meta_mean_anomaly": 132.0312,
        "meta_ephemeris_type": 0,
        "meta_classification_type": "U",
        "meta_norad_cat_id": 66995,
        "meta_element_set_no": 999,
        "meta_rev_at_epoch": 227,
        "meta_bstar": 0.00041226,
        "meta_mean_motion_dot": 5.751e-05,
        "meta_mean_motion_ddot": 0,
        "tle_line1": "1 66995U 25292C   25359.24313955  .00005751  00000+0  41226-3 0  9996",
        "tle_line2": "2 66995  97.6495  71.6733 0014688 227.9665 132.0312 15.04668363  2273"
      },
      "geometry": {
        "type": "Point",
        "coordinates": [
          77.71487791468205,
          -25.90081828658022
        ]
      }
    },
    {
      "type": "Feature",
      "properties": {
        "norad_id": 66996,
        "name": "2025-292D",
        "group": "last-30-days",
        "lat": -23.92587974281659,
        "lon": 77.39117563768572,
        "alt_km": 561.7880945174011,
        "timestamp": "2025-12-27T13:34:48.009313+00:00",
        "meta_object_name": "2025-292D",
        "meta_object_id": "2025-292D",
        "meta_epoch": "2025-12-25T05:49:36.025248",
        "meta_mean_motion": 15.04678565,
        "meta_eccentricity": 0.0013797,
        "meta_inclination": 97.6491,
        "meta_ra_of_asc_node": 71.6729,
        "meta_arg_of_pericenter": 230.5158,
        "meta_mean_anomaly": 129.4848,
        "meta_ephemeris_type": 0,
        "meta_classification_type": "U",
        "meta_norad_cat_id": 66996,
        "meta_element_set_no": 999,
        "meta_rev_at_epoch": 227,
        "meta_bstar": 0.00027339,
        "meta_mean_motion_dot": 3.792e-05,
        "meta_mean_motion_ddot": 0,
        "tle_line1": "1 66996U 25292D   25359.24277807  .00003792  00000+0  27339-3 0  9994",
        "tle_line2": "2 66996  97.6491  71.6729 0013797 230.5158 129.4848 15.04678565  2271"
      },
      "geometry": {
        "type": "Point",
        "coordinates": [
          77.39117563768572,
          -23.92587974281659
        ]
      }
    },
    {
      "type": "Feature",
      "properties": {
        "norad_id": 66997,
        "name": "2025-292E",
        "group": "last-30-days",
        "lat": -18.67324915098028,
        "lon": 76.583267171986,
        "alt_km": 561.8815625393445,
        "timestamp": "2025-12-27T13:34:48.009323+00:00",
        "meta_object_name": "2025-292E",
        "meta_object_id": "2025-292E",
        "meta_epoch": "2025-12-27T05:41:03.045984",
        "meta_mean_motion": 15.04790868,
        "meta_eccentricity": 0.00143704,
        "meta_inclination": 97.6508,
        "meta_ra_of_asc_node": 73.6536,
        "meta_arg_of_pericenter": 224.7355,
        "meta_mean_anomaly": 135.2713,
        "meta_ephemeris_type": 0,
        "meta_classification_type": "U",
        "meta_norad_cat_id": 66997,
        "meta_element_set_no": 999,
        "meta_rev_at_epoch": 256,
        "meta_bstar": 0.00037984132,
        "meta_mean_motion_dot": 5.31e-05,
        "meta_mean_motion_ddot": 0,
        "tle_line1": "1 66997U 25292E   25361.23684081  .00005310  00000+0  37984-3 0  9998",
        "tle_line2": "2 66997  97.6508  73.6536 0014370 224.7355 135.2713 15.04790868  2560"
      },
      "geometry": {
        "type": "Point",
        "coordinates": [
          76.583267171986,
          -18.67324915098028
        ]
      }
    }
  ]
}